{"type": "FeatureCollection", "features": [ {"type": "Feature", "properties": {"norad_id": 66561, "name": "STARLINK-35305", "group": "last-30-days", "lat": -39.291842530897846, "lon": -15.266141819934223, "alt_km": 416.48926757449044, "timestamp": "2025-12-15T19:00:44.076556+00:00", "meta": {"OBJECT_NAME": "STARLINK-35305", "OBJECT_ID": "2025-268E", "EPOCH": "2025-12-14T09:29:03.790464", "MEAN_MOTION": 15.50595766, "ECCENTRICITY": 0.00016653, "INCLINATION": 43, "RA_OF_ASC_NODE": 111.4952, "ARG_OF_PERICENTER": 263.4795, "MEAN_ANOMALY": 96.5876, "EPHEMERIS_TYPE": 0, "CLASSIFICATION_TYPE": "U", "NORAD_CAT_ID": 66561, "ELEMENT_SET_NO": 999, "REV_AT_EPOCH": 488, "BSTAR": 0.0014529464, "MEAN_MOTION_DOT": 0.00085888, "MEAN_MOTION_DDOT": 0}, "tle": {"line1": "1 66561U 25268E   25348.39518276  .00085888  00000+0  14529-2 0  9999", "line2": "2 66561  43.0000 111.4952 0001665 263.4795  96.5876 15.50595766  4880"}}, "geometry": {"type": "Point", "coordinates": [-15.266141819934223, -39.291842530897846]}}, {"type": "Feature", "properties": {"norad_id": 66562, "name": "STARLINK-35579", "group": "last-30-days", "lat": -38.63221996382166, "lon": -17.62121065459121, "alt_km": 416.79414007279956, "timestamp": "2025-12-15T19:00:44.076567+00:00", "meta": {"OBJECT_NAME": "STARLINK-35579", "OBJECT_ID": "2025-268F", "EPOCH": "2025-12-14T09:29:33.423072", "MEAN_MOTION": 15.50596687, "ECCENTRICITY": 0.0001537, "INCLINATION": 43, "RA_OF_ASC_NODE": 111.4966, "ARG_OF_PERICENTER": 283.1897, "MEAN_ANOMALY": 76.8791, "EPHEMERIS_TYPE": 0, "CLASSIFICATION_TYPE": "U", "NORAD_CAT_ID": 66562, "ELEMENT_SET_NO": 999, "REV_AT_EPOCH": 488, "BSTAR": 0.0013652976, "MEAN_MOTION_DOT": 0.00080634, "MEAN_MOTION_DDOT": 0}, "tle": {"line1": "1 66562U 25268F   25348.39552573  .00080634  00000+0  13653-2 0  9999", "line2": "2 66562  43.0000 111.4966 0001537 283.1897  76.8791 15.50596687  4886"}}, "geometry": {"type": "Point", "coordinates": [-17.62121065459121, -38.63221996382166]}}, {"type": "Feature", "properties": {"norad_id": 66563, "name": "STARLINK-35437", "group": "last-30-days", "lat": -39.91249275527914, "lon": -12.829239951965114, "alt_km": 416.4596431612945, "timestamp": "2025-12-15T19:00:44.076579+00:00", "meta": {"OBJECT_NAME": "STARLINK-35437", "OBJECT_ID": "2025-268G", "EPOCH": "2025-12-14T09:28:34.176864", "MEAN_MOTION": 15.50599771, "ECCENTRICITY": 0.00016075, "INCLINATION": 42.9994, "RA_OF_ASC_NODE": 111.4909, "ARG_OF_PERICENTER": 261.4336, "MEAN_ANOMALY": 98.6342, "EPHEMERIS_TYPE": 0, "CLASSIFICATION_TYPE": "U", "NORAD_CAT_ID": 66563, "ELEMENT_SET_NO": 999, "REV_AT_EPOCH": 488, "BSTAR": 0.0015648949, "MEAN_MOTION_DOT": 0.00092625, "MEAN_MOTION_DDOT": 0}, "tle": {"line1": "1 66563U 25268G   25348.39484001  .00092625  00000+0  15649-2 0  9990", "line2": "2 66563  42.9994 111.4909 0001607 261.4336  98.6342 15.50599771  4880"}}, "geometry": {"type": "Point", "coordinates": [-12.829239951965114, -39.91249275527914]}}, {"type": "Feature", "properties": {"norad_id": 66564, "name": "STARLINK-35358", "group": "last-30-days", "lat": -40.47622833276639, "lon": -10.371670943669912, "alt_km": 416.75941275024434, "timestamp": "2025-12-15T19:00:44.076589+00:00", "meta": {"OBJECT_NAME": "STARLINK-35358", "OBJECT_ID": "2025-268H", "EPOCH": "2025-12-14T09:28:04.327392", "MEAN_MOTION": 15.50612702, "ECCENTRICITY": 0.00011901, "INCLINATION": 42.9991, "RA_OF_ASC_NODE": 111.4875, "ARG_OF_PERICENTER": 265.2682, "MEAN_ANOMALY": 94.8042, "EPHEMERIS_TYPE": 0, "CLASSIFICATION_TYPE": "U", "NORAD_CAT_ID": 66564, "ELEMENT_SET_NO": 999, "REV_AT_EPOCH": 488, "BSTAR": 0.0014790939, "MEAN_MOTION_DOT": 0.0008751, "MEAN_MOTION_DDOT": 0}, "tle": {"line1": "1 66564U 25268H   25348.39449453  .00087510  00000+0  14791-2 0  9997", "line2": "2 66564  42.9991 111.4875 0001190 265.2682  94.8042 15.50612702  4888"}}, "geometry": {"type": "Point", "coordinates": [-10.371670943669912, -40.47622833276639]}}, {"type": "Feature", "properties": {"norad_id": 66565, "name": "STARLINK-35893", "group": "last-30-days", "lat": -40.97574759290489, "lon": -7.933642194232826, "alt_km": 417.4549119419762, "timestamp": "2025-12-15T19:00:44.076599+00:00", "meta": {"OBJECT_NAME": "STARLINK-35893", "OBJECT_ID": "2025-268J", "EPOCH": "2025-12-14T09:27:34.947072", "MEAN_MOTION": 15.50617193, "ECCENTRICITY": 5.449e-05, "INCLINATION": 42.9994, "RA_OF_ASC_NODE": 111.4854, "ARG_OF_PERICENTER": 325.9619, "MEAN_ANOMALY": 34.1206, "EPHEMERIS_TYPE": 0, "CLASSIFICATION_TYPE": "U", "NORAD_CAT_ID": 66565, "ELEMENT_SET_NO": 999, "REV_AT_EPOCH": 488, "BSTAR": 0.0014479257, "MEAN_MOTION_DOT": 0.00085652, "MEAN_MOTION_DDOT": 0}, "tle": {"line1": "1 66565U 25268J   25348.39415448  .00085652  00000+0  14479-2 0  9993", "line2": "2 66565  42.9994 111.4854 0000544 325.9619  34.1206 15.50617193  4883"}}, "geometry": {"type": "Point", "coordinates": [-7.933642194232826, -40.97574759290489]}}, {"type": "Feature", "properties": {"norad_id": 66566, "name": "STARLINK-35871", "group": "last-30-days", "lat": -41.43414270417797, "lon": -5.392747624831568, "alt_km": 416.54921721693154, "timestamp": "2025-12-15T19:00:44.076610+00:00", "meta": {"OBJECT_NAME": "STARLINK-35871", "OBJECT_ID": "2025-268K", "EPOCH": "2025-12-14T09:27:04.631040", "MEAN_MOTION": 15.50620861, "ECCENTRICITY": 0.0001485, "INCLINATION": 42.9993, "RA_OF_ASC_NODE": 111.4823, "ARG_OF_PERICENTER": 258.6406, "MEAN_ANOMALY": 101.4287, "EPHEMERIS_TYPE": 0, "CLASSIFICATION_TYPE": "U", "NORAD_CAT_ID": 66566, "ELEMENT_SET_NO": 999, "REV_AT_EPOCH": 488, "BSTAR": 0.0014564171, "MEAN_MOTION_DOT": 0.00086174, "MEAN_MOTION_DDOT": 0}, "tle": {"line1": "1 66566U 25268K   25348.39380360  .00086174  00000+0  14564-2 0  9993", "line2": "2 66566  42.9993 111.4823 0001485 258.6406 101.4287 15.50620861  4883"}}, "geometry": {"type": "Point", "coordinates": [-5.392747624831568, -41.43414270417797]}}, {"type": "Feature", "properties": {"norad_id": 66567, "name": "STARLINK-35825", "group": "last-30-days", "lat": -41.766203134888016, "lon": -3.2944911833415205, "alt_km": 416.5074849085913, "timestamp": "2025-12-15T19:00:44.076620+00:00", "meta": {"OBJECT_NAME": "STARLINK-35825", "OBJECT_ID": "2025-268L", "EPOCH": "2025-12-14T15:37:37.032384", "MEAN_MOTION": 15.50612178, "ECCENTRICITY": 0.00019681, "INCLINATION": 42.9994, "RA_OF_ASC_NODE": 109.972, "ARG_OF_PERICENTER": 277.0359, "MEAN_ANOMALY": 83.0278, "EPHEMERIS_TYPE": 0, "CLASSIFICATION_TYPE": "U", "NORAD_CAT_ID": 66567, "ELEMENT_SET_NO": 999, "REV_AT_EPOCH": 492, "BSTAR": 0.0014539761, "MEAN_MOTION_DOT": 0.00086002, "MEAN_MOTION_DDOT": 0}, "tle": {"line1": "1 66567U 25268L   25348.65112306  .00086002  00000+0  14540-2 0  9990", "line2": "2 66567  42.9994 109.9720 0001968 277.0359  83.0278 15.50612178  4923"}}, "geometry": {"type": "Point", "coordinates": [-3.2944911833415205, -41.766203134888016]}}, {"type": "Feature", "properties": {"norad_id": 66568, "name": "STARLINK-35803", "group": "last-30-days", "lat": -42.145500924061025, "lon": -0.48990782288576507, "alt_km": 417.1438116579611, "timestamp": "2025-12-15T19:00:44.076636+00:00", "meta": {"OBJECT_NAME": "STARLINK-35803", "OBJECT_ID": "2025-268M", "EPOCH": "2025-12-14T09:26:05.830656", "MEAN_MOTION": 15.50616761, "ECCENTRICITY": 7.829e-05, "INCLINATION": 42.9994, "RA_OF_ASC_NODE": 111.4761, "ARG_OF_PERICENTER": 273.2649, "MEAN_ANOMALY": 86.8122, "EPHEMERIS_TYPE": 0, "CLASSIFICATION_TYPE": "U", "NORAD_CAT_ID": 66568, "ELEMENT_SET_NO": 999, "REV_AT_EPOCH": 488, "BSTAR": 0.0013254271, "MEAN_MOTION_DOT": 0.00078301, "MEAN_MOTION_DDOT": 0}, "tle": {"line1": "1 66568U 25268M   25348.39312304  .00078301  00000+0  13254-2 0  9996", "line2": "2 66568  42.9994 111.4761 0000782 273.2649  86.8122 15.50616761  4886"}}, "geometry": {"type": "Point", "coordinates": [-0.48990782288576507, -42.145500924061025]}}, {"type": "Feature", "properties": {"norad_id": 66569, "name": "STARLINK-35835", "group": "last-30-days", "lat": -42.42815789741497, "lon": 2.0655867930223915, "alt_km": 416.9905952913841, "timestamp": "2025-12-15T19:00:44.076646+00:00", "meta": {"OBJECT_NAME": "STARLINK-35835", "OBJECT_ID": "2025-268N", "EPOCH": "2025-12-14T09:25:36.244704", "MEAN_MOTION": 15.50611143, "ECCENTRICITY": 0.00011191, "INCLINATION": 42.9996, "RA_OF_ASC_NODE": 111.4742, "ARG_OF_PERICENTER": 287.3319, "MEAN_ANOMALY": 72.7418, "EPHEMERIS_TYPE": 0, "CLASSIFICATION_TYPE": "U", "NORAD_CAT_ID": 66569, "ELEMENT_SET_NO": 999, "REV_AT_EPOCH": 488, "BSTAR": 0.0014189075, "MEAN_MOTION_DOT": 0.00083891, "MEAN_MOTION_DDOT": 0}, "tle": {"line1": "1 66569U 25268N   25348.39278061  .00083891  00000+0  14189-2 0  9996", "line2": "2 66569  42.9996 111.4742 0001119 287.3319  72.7418 15.50611143  4884"}}, "geometry": {"type": "Point", "coordinates": [2.0655867930223915, -42.42815789741497]}}, {"type": "Feature", "properties": {"norad_id": 66570, "name": "STARLINK-35834", "group": "last-30-days", "lat": -42.64785234181345, "lon": 4.56773983431336, "alt_km": 417.0521218690783, "timestamp": "2025-12-15T19:00:44.076657+00:00", "meta": {"OBJECT_NAME": "STARLINK-35834", "OBJECT_ID": "2025-268P", "EPOCH": "2025-12-14T09:25:06.706272", "MEAN_MOTION": 15.50607829, "ECCENTRICITY": 0.0001004, "INCLINATION": 42.9998, "RA_OF_ASC_NODE": 111.471, "ARG_OF_PERICENTER": 278.2632, "MEAN_ANOMALY": 81.8115, "EPHEMERIS_TYPE": 0, "CLASSIFICATION_TYPE": "U", "NORAD_CAT_ID": 66570, "ELEMENT_SET_NO": 999, "REV_AT_EPOCH": 488, "BSTAR": 0.0013365785, "MEAN_MOTION_DOT": 0.00078944, "MEAN_MOTION_DDOT": 0}, "tle": {"line1": "1 66570U 25268P   25348.39243873  .00078944  00000+0  13366-2 0  9990", "line2": "2 66570  42.9998 111.4710 0001004 278.2632  81.8115 15.50607829  4884"}}, "geometry": {"type": "Point", "coordinates": [4.56773983431336, -42.64785234181345]}}]}